{"type": "FeatureCollection", "features": [{"type": "Feature", "properties": {"norad_id": 25730, "name": "FENGYUN 1C", "group": "fengyun-1c-debris", "lat": 43.44768687357248, "lon": 42.69993944030141, "alt_km": 794.5212709714569, "timestamp": "2025-12-11T05:00:26.579635+00:00", "meta": {"OBJECT_NAME": "FENGYUN 1C", "OBJECT_ID": "1999-025A", "EPOCH": "2025-12-10T22:03:56.750112", "MEAN_MOTION": 14.26034191, "ECCENTRICITY": 0.00107614, "INCLINATION": 98.8836, "RA_OF_ASC_NODE": 50.9265, "ARG_OF_PERICENTER": 73.2509, "MEAN_ANOMALY": 286.9851, "EPHEMERIS_TYPE": 0, "CLASSIFICATION_TYPE": "U", "NORAD_CAT_ID": 25730, "ELEMENT_SET_NO": 999, "REV_AT_EPOCH": 37111, "BSTAR": 0.0016673894, "MEAN_MOTION_DOT": 3.94e-05, "MEAN_MOTION_DDOT": 0}, "tle": {"line1": "1 25730U 99025A   25344.91940683  .00003940  00000+0  16674-2 0  9991", "line2": "2 25730  98.8836  50.9265 0010761  73.2509 286.9851 14.26034191371112"}}, "geometry": {"type": "Point", "coordinates": [42.69993944030141, 43.44768687357248]}}, {"type": "Feature", "properties": {"norad_id": 29733, "name": "FENGYUN 1C DEB", "group": "fengyun-1c-debris", "lat": -3.6493221186147635, "lon": 42.097972704780574, "alt_km": 1654.1207725794866, "timestamp": "2025-12-11T05:00:26.579656+00:00", "meta": {"OBJECT_NAME": "FENGYUN 1C DEB", "OBJECT_ID": "1999-025X", "EPOCH": "2025-12-10T22:34:02.049600", "MEAN_MOTION": 12.96460663, "ECCENTRICITY": 0.05697212, "INCLINATION": 99.2245, "RA_OF_ASC_NODE": 41.2766, "ARG_OF_PERICENTER": 206.122, "MEAN_ANOMALY": 335.2018, "EPHEMERIS_TYPE": 0, "CLASSIFICATION_TYPE": "U", "NORAD_CAT_ID": 29733, "ELEMENT_SET_NO": 999, "REV_AT_EPOCH": 89096, "BSTAR": 0.0024828631, "MEAN_MOTION_DOT": 1.464e-05, "MEAN_MOTION_DDOT": 0}, "tle": {"line1": "1 29733U 99025X   25344.94030150  .00001464  00000+0  24829-2 0  9990", "line2": "2 29733  99.2245  41.2766 0569721 206.1220 335.2018 12.96460663890963"}}, "geometry": {"type": "Point", "coordinates": [42.097972704780574, -3.6493221186147635]}}, {"type": "Feature", "properties": {"norad_id": 29734, "name": "FENGYUN 1C DEB", "group": "fengyun-1c-debris", "lat": -20.75779777924352, "lon": 91.85452087365113, "alt_km": 1770.9769214142943, "timestamp": "2025-12-11T05:00:26.579669+00:00", "meta": {"OBJECT_NAME": "FENGYUN 1C DEB", "OBJECT_ID": "1999-025Y", "EPOCH": "2025-12-10T18:48:22.639968", "MEAN_MOTION": 12.9128111, "ECCENTRICITY": 0.06150891, "INCLINATION": 99.1691, "RA_OF_ASC_NODE": 275.0086, "ARG_OF_PERICENTER": 16.2404, "MEAN_ANOMALY": 10.5253, "EPHEMERIS_TYPE": 0, "CLASSIFICATION_TYPE": "U", "NORAD_CAT_ID": 29734, "ELEMENT_SET_NO": 999, "REV_AT_EPOCH": 88523, "BSTAR": 0.0071165143, "MEAN_MOTION_DOT": 4.394e-05, "MEAN_MOTION_DDOT": 0}, "tle": {"line1": "1 29734U 99025Y   25344.78359537  .00004394  00000+0  71165-2 0  9996", "line2": "2 29734  99.1691 275.0086 0615089  16.2404  10.5253 12.91281110885234"}}, "geometry": {"type": "Point", "coordinates": [91.85452087365113, -20.75779777924352]}}, {"type": "Feature", "properties": {"norad_id": 29735, "name": "FENGYUN 1C DEB", "group": "fengyun-1c-debris", "lat": -32.604282460773966, "lon": 74.34430470332595, "alt_km": 909.8607613993236, "timestamp": "2025-12-11T05:00:26.579680+00:00", "meta": {"OBJECT_NAME": "FENGYUN 1C DEB", "OBJECT_ID": "1999-025Z", "EPOCH": "2025-12-10T14:44:02.054688", "MEAN_MOTION": 12.75041724, "ECCENTRICITY": 0.0697603, "INCLINATION": 99.391, "RA_OF_ASC_NODE": 259.9248, "ARG_OF_PERICENTER": 180.0439, "MEAN_ANOMALY": 180.0705, "EPHEMERIS_TYPE": 0, "CLASSIFICATION_TYPE": "U", "NORAD_CAT_ID": 29735, "ELEMENT_SET_NO": 999, "REV_AT_EPOCH": 87388, "BSTAR": 0.0017167, "MEAN_MOTION_DOT": 9.68e-06, "MEAN_MOTION_DDOT": 0}, "tle": {"line1": "1 29735U 99025Z   25344.61391267  .00000968  00000+0  17167-2 0  9990", "line2": "2 29735  99.3910 259.9248 0697603 180.0439 180.0705 12.75041724873882"}}, "geometry": {"type": "Point", "coordinates": [74.34430470332595, -32.604282460773966]}}, {"type": "Feature", "properties": {"norad_id": 29736, "name": "FENGYUN 1C DEB", "group": "fengyun-1c-debris", "lat": 65.04524007641847, "lon": 144.04202060833103, "alt_km": 1807.2224429941598, "timestamp": "2025-12-11T05:00:26.579692+00:00", "meta": {"OBJECT_NAME": "FENGYUN 1C DEB", "OBJECT_ID": "1999-025AA", "EPOCH": "2025-12-10T23:44:32.793216", "MEAN_MOTION": 12.57485914, "ECCENTRICITY": 0.07255035, "INCLINATION": 99.4018, "RA_OF_ASC_NODE": 164.7206, "ARG_OF_PERICENTER": 202.4432, "MEAN_ANOMALY": 317.8508, "EPHEMERIS_TYPE": 0, "CLASSIFICATION_TYPE": "U", "NORAD_CAT_ID": 29736, "ELEMENT_SET_NO": 999, "REV_AT_EPOCH": 86522, "BSTAR": 0.003024953, "MEAN_MOTION_DOT": 1.348e-05, "MEAN_MOTION_DDOT": 0}, "tle": {"line1": "1 29736U 99025AA  25344.98926844  .00001348  00000+0  30250-2 0  9997", "line2": "2 29736  99.4018 164.7206 0725503 202.4432 317.8508 12.57485914865226"}}, "geometry": {"type": "Point", "coordinates": [144.04202060833103, 65.04524007641847]}}, {"type": "Feature", "properties": {"norad_id": 29737, "name": "FENGYUN 1C DEB", "group": "fengyun-1c-debris", "lat": 59.7495761951417, "lon": 137.35891561235175, "alt_km": 891.3325408641585, "timestamp": "2025-12-11T05:00:26.579703+00:00", "meta": {"OBJECT_NAME": "FENGYUN 1C DEB", "OBJECT_ID": "1999-025AB", "EPOCH": "2025-12-10T16:00:11.753280", "MEAN_MOTION": 12.65645926, "ECCENTRICITY": 0.06945544, "INCLINATION": 99.5807, "RA_OF_ASC_NODE": 300.0733, "ARG_OF_PERICENTER": 143.0308, "MEAN_ANOMALY": 31.1036, "EPHEMERIS_TYPE": 0, "CLASSIFICATION_TYPE": "U", "NORAD_CAT_ID": 29737, "ELEMENT_SET_NO": 999, "REV_AT_EPOCH": 86842, "BSTAR": 0.0023301991, "MEAN_MOTION_DOT": 1.101e-05, "MEAN_MOTION_DDOT": 0}, "tle": {"line1": "1 29737U 99025AB  25344.66680270  .00001101  00000+0  23302-2 0  9990", "line2": "2 29737  99.5807 300.0733 0694554 143.0308  31.1036 12.65645926868424"}}, "geometry": {"type": "Point", "coordinates": [137.35891561235175, 59.7495761951417]}}, {"type": "Feature", "properties": {"norad_id": 29738, "name": "FENGYUN 1C DEB", "group": "fengyun-1c-debris", "lat": 12.937940912984855, "lon": -25.405092016472064, "alt_km": 1826.7817325926617, "timestamp": "2025-12-11T05:00:26.579713+00:00", "meta": {"OBJECT_NAME": "FENGYUN 1C DEB", "OBJECT_ID": "1999-025AC", "EPOCH": "2025-12-10T22:19:38.977536", "MEAN_MOTION": 12.61023472, "ECCENTRICITY": 0.08644485, "INCLINATION": 99.4096, "RA_OF_ASC_NODE": 152.1843, "ARG_OF_PERICENTER": 298.3993, "MEAN_ANOMALY": 53.2594, "EPHEMERIS_TYPE": 0, "CLASSIFICATION_TYPE": "U", "NORAD_CAT_ID": 29738, "ELEMENT_SET_NO": 999, "REV_AT_EPOCH": 86194, "BSTAR": 0.0032448107, "MEAN_MOTION_DOT": 2.434e-05, "MEAN_MOTION_DDOT": 0}, "tle": {"line1": "1 29738U 99025AC  25344.93031224  .00002434  00000+0  32448-2 0  9991", "line2": "2 29738  99.4096 152.1843 0864448 298.3993  53.2594 12.61023472861943"}}, "geometry": {"type": "Point", "coordinates": [-25.405092016472064, 12.937940912984855]}}, {"type": "Feature", "properties": {"norad_id": 29740, "name": "FENGYUN 1C DEB", "group": "fengyun-1c-debris", "lat": 77.08529966388573, "lon": 61.19555512282188, "alt_km": 1732.0749648257515, "timestamp": "2025-12-11T05:00:26.579724+00:00", "meta": {"OBJECT_NAME": "FENGYUN 1C DEB", "OBJECT_ID": "1999-025AE", "EPOCH": "2025-12-10T00:33:08.583264", "MEAN_MOTION": 12.0832584, "ECCENTRICITY": 0.09750732, "INCLINATION": 99.0446, "RA_OF_ASC_NODE": 196.3551, "ARG_OF_PERICENTER": 204.1383, "MEAN_ANOMALY": 151.0895, "EPHEMERIS_TYPE": 0, "CLASSIFICATION_TYPE": "U", "NORAD_CAT_ID": 29740, "ELEMENT_SET_NO": 999, "REV_AT_EPOCH": 82902, "BSTAR": 0.0010996439, "MEAN_MOTION_DOT": 3.97e-06, "MEAN_MOTION_DDOT": 0}, "tle": {"line1": "1 29740U 99025AE  25344.02301601  .00000397  00000+0  10996-2 0  9993", "line2": "2 29740  99.0446 196.3551 0975073 204.1383 151.0895 12.08325840829021"}}, "geometry": {"type": "Point", "coordinates": [61.19555512282188, 77.08529966388573]}}, {"type": "Feature", "properties": {"norad_id": 29741, "name": "FENGYUN 1C DEB", "group": "fengyun-1c-debris", "lat": 13.403547874262108, "lon": -142.22949440282784, "alt_km": 1132.3634594455352, "timestamp": "2025-12-11T05:00:26.579734+00:00", "meta": {"OBJECT_NAME": "FENGYUN 1C DEB", "OBJECT_ID": "1999-025AF", "EPOCH": "2025-12-10T15:05:12.289344", "MEAN_MOTION": 12.00922425, "ECCENTRICITY": 0.1024287, "INCLINATION": 99.1746, "RA_OF_ASC_NODE": 219.5621, "ARG_OF_PERICENTER": 68.0525, "MEAN_ANOMALY": 328.1045, "EPHEMERIS_TYPE": 0, "CLASSIFICATION_TYPE": "U", "NORAD_CAT_ID": 29741, "ELEMENT_SET_NO": 999, "REV_AT_EPOCH": 52158, "BSTAR": 0.0064237, "MEAN_MOTION_DOT": 2.495e-05, "MEAN_MOTION_DDOT": 0}, "tle": {"line1": "1 29741U 99025AF  25344.62861446  .00002495  00000+0  64237-2 0  9996", "line2": "2 29741  99.1746 219.5621 1024287  68.0525 328.1045 12.00922425521588"}}, "geometry": {"type": "Point", "coordinates": [-142.22949440282784, 13.403547874262108]}}, {"type": "Feature", "properties": {"norad_id": 29748, "name": "FENGYUN 1C DEB", "group": "fengyun-1c-debris", "lat": 4.446345449282491, "lon": -84.25932433914024, "alt_km": 1053.0518706747735, "timestamp": "2025-12-11T05:00:26.579745+00:00", "meta": {"OBJECT_NAME": "FENGYUN 1C DEB", "OBJECT_ID": "1999-025AN", "EPOCH": "2025-12-08T18:28:11.177184", "MEAN_MOTION": 11.89764026, "ECCENTRICITY": 0.08397796, "INCLINATION": 99.8026, "RA_OF_ASC_NODE": 274.6986, "ARG_OF_PERICENTER": 16.7533, "MEAN_ANOMALY": 345.9549, "EPHEMERIS_TYPE": 0, "CLASSIFICATION_TYPE": "U", "NORAD_CAT_ID": 29748, "ELEMENT_SET_NO": 999, "REV_AT_EPOCH": 78686, "BSTAR": 0.18763308, "MEAN_MOTION_DOT": 0.00036035, "MEAN_MOTION_DDOT": 0}, "tle": {"line1": "1 29748U 99025AN  25342.76957381  .00036035  00000+0  18763+0 0  9997", "line2": "2 29748  99.8026 274.6986 0839779  16.7533 345.9549 11.89764026786864"}}, "geometry": {"type": "Point", "coordinates": [-84.25932433914024, 4.446345449282491]}}]}